ONEWEB-0159             
1 48062U 21025W   25232.89886001 -.00000481  00000+0 -13516-2 0  9996
2 48062  87.8998  19.8501 0001659 103.3290 256.8024 13.13469564214189
ONEWEB-0164             
1 48063U 21025X   25232.88024118  .00000002  00000+0 -28166-4 0  9996
2 48063  87.8996  19.8633 0001774  94.4653 265.6679 13.13470667214163
ONEWEB-0167             
1 48064U 21025Y   25232.90817912 -.00000228  00000+0 -65881-3 0  9997
2 48064  87.9004  19.8915 0001016  83.1740 276.9505 13.13471699214157
ONEWEB-0166             
1 48065U 21025Z   25232.77867541  .00000356  00000+0  94111-3 0  9994
2 48065  87.8992  19.8678 0001801 101.9622 258.1709 13.13472072214210
ONEWEB-0151             
1 48066U 21025AA  25232.78038139  .00000188  00000+0  47919-3 0  9996
2 48066  87.8997  19.8917 0001645  92.9244 267.2073 13.13468421214158
ONEWEB-0170             
1 48067U 21025AB  25232.78883217  .00000288  00000+0  75487-3 0  9994
2 48067  87.8999  19.8963 0001805  80.1345 279.9987 13.13471246214110
ONEWEB-0168             
1 48068U 21025AC  25232.77359974  .00000249  00000+0  64804-3 0  9990
2 48068  87.8997  19.8805 0001633  99.8847 260.2466 13.13470217214120
ONEWEB-0173             
1 48069U 21025AD  25232.91749034 -.00000152  00000+0 -45003-3 0  9992
2 48069  87.8997  19.8602 0001304 100.2735 259.8541 13.13470290214381
